IRIDIUM 57              
1 25273U 98019B   24172.42310194  .00000427  00000+0  14237-3 0  9998
2 25273  86.3953 296.7653 0002132  94.0212 266.1228 14.35252983372886
IRIDIUM 63              
1 25286U 98021B   24172.58489615  .00000425  00000+0  14032-3 0  9998
2 25286  86.3994 233.5945 0002306  89.5283 270.6178 14.35804586371940
IRIDIUM 69              
1 25319U 98026A   24172.57394285  .00000555  00000+0  16995-3 0  9991
2 25319  86.3981 247.9755 0004318 115.6351 244.5294 14.40044364371005
IRIDIUM 71              
1 25320U 98026B   24172.57323027  .00000495  00000+0  14986-3 0  9990
2 25320  86.3984 242.7360 0002690 144.7784 215.3593 14.40356375371522
IRIDIUM 73              
1 25344U 98032C   24172.61238209  .00000610  00000+0  15056-3 0  9993
2 25344  86.4442 200.1625 0002830 100.3897 259.7627 14.50584235378121
IRIDIUM 82              
1 25467U 98051A   24172.38866670  .00014669  00000+0  73577-3 0  9994
2 25467  86.3756 284.2512 0126672 208.1231 151.3129 15.10349045368973
IRIDIUM 2               
1 25527U 98066A   24172.38569314  .00621463  17278-3  11735-2 0  9994
2 25527  85.4920 300.8209 0008781 259.0153 101.0145 16.00760484408440
